[
    {
        "Altitude(m)": 704127.3336659165,
        "Argument of Periapsis(deg)": 0.005695060593313534,
        "Eccentricity": 0.0,
        "Inclination(deg)": 45.0,
        "Latitude(deg)": 29.121685574564644,
        "Longitude(deg)": -164.01991538779006,
        "Mean Anomaly(deg)": 136.67570832374037,
        "RAAN(deg)": 149.9946240292709,
        "Satellite Name": "Constellation 1 668",
        "Satellite Number": 668,
        "Semi-Major Axis(m)": 7083131.272910544,
        "Time(s)": 95
    },
    {
        "Altitude(m)": 704121.7230485681,
        "Argument of Periapsis(deg)": 0.00575500859955894,
        "Eccentricity": 0.0,
        "Inclination(deg)": 45.0,
        "Latitude(deg)": 29.08576812850911,
        "Longitude(deg)": -163.96795519891847,
        "Mean Anomaly(deg)": 136.73640946399036,
        "RAAN(deg)": 149.99456744010533,
        "Satellite Name": "Constellation 1 668",
        "Satellite Number": 668,
        "Semi-Major Axis(m)": 7083131.272910544,
        "Time(s)": 96
    },
    {
        "Altitude(m)": 704116.1177514087,
        "Argument of Periapsis(deg)": 0.005814956605804345,
        "Eccentricity": 0.0,
        "Inclination(deg)": 45.0,
        "Latitude(deg)": 29.049827086941132,
        "Longitude(deg)": -163.9160337241185,
        "Mean Anomaly(deg)": 136.79711060424017,
        "RAAN(deg)": 149.99451085093978,
        "Satellite Name": "Constellation 1 668",
        "Satellite Number": 668,
        "Semi-Major Axis(m)": 7083131.272910544,
        "Time(s)": 97
    },
    {
        "Altitude(m)": 704110.5178135815,
        "Argument of Periapsis(deg)": 0.00587490461204975,
        "Eccentricity": 0.0,
        "Inclination(deg)": 45.0,
        "Latitude(deg)": 29.013862500370614,
        "Longitude(deg)": -163.86415107255212,
        "Mean Anomaly(deg)": 136.8578117444901,
        "RAAN(deg)": 149.9944542617742,
        "Satellite Name": "Constellation 1 668",
        "Satellite Number": 668,
        "Semi-Major Axis(m)": 7083131.272910544,
        "Time(s)": 98
    },
    {
        "Altitude(m)": 704104.9232742082,
        "Argument of Periapsis(deg)": 0.005934852618295156,
        "Eccentricity": 0.0,
        "Inclination(deg)": 45.0,
        "Latitude(deg)": 28.977874419235675,
        "Longitude(deg)": -163.81230718524307,
        "Mean Anomaly(deg)": 136.91851288473998,
        "RAAN(deg)": 149.99439767260864,
        "Satellite Name": "Constellation 1 668",
        "Satellite Number": 668,
        "Semi-Major Axis(m)": 7083131.272910544,
        "Time(s)": 99
    },
    {
        "Altitude(m)": 704099.3341723983,
        "Argument of Periapsis(deg)": 0.005994800624540561,
        "Eccentricity": 0.0,
        "Inclination(deg)": 45.0,
        "Latitude(deg)": 28.9418628939027,
        "Longitude(deg)": -163.76050200317422,
        "Mean Anomaly(deg)": 136.97921402498991,
        "RAAN(deg)": 149.99434108344303,
        "Satellite Name": "Constellation 1 668",
        "Satellite Number": 668,
        "Semi-Major Axis(m)": 7083131.272910544,
        "Time(s)": 100
    },
    {
        "Altitude(m)": 704093.7505472628,
        "Argument of Periapsis(deg)": 0.006054748630785968,
        "Eccentricity": 0.0,
        "Inclination(deg)": 45.0,
        "Latitude(deg)": 28.905827974666387,
        "Longitude(deg)": -163.7087354672878,
        "Mean Anomaly(deg)": 137.03991516523985,
        "RAAN(deg)": 149.99428449427748,
        "Satellite Name": "Constellation 1 668",
        "Satellite Number": 668,
        "Semi-Major Axis(m)": 7083131.272910544,
        "Time(s)": 101
    },
    {
        "Altitude(m)": 704088.1724378854,
        "Argument of Periapsis(deg)": 0.006114696637031373,
        "Eccentricity": 0.0,
        "Inclination(deg)": 45.0,
        "Latitude(deg)": 28.869769711750145,
        "Longitude(deg)": -163.65700751848686,
        "Mean Anomaly(deg)": 137.10061630548967,
        "RAAN(deg)": 149.99422790511193,
        "Satellite Name": "Constellation 1 668",
        "Satellite Number": 668,
        "Semi-Major Axis(m)": 7083131.272910544,
        "Time(s)": 102
    },
    {
        "Altitude(m)": 704082.5998833526,
        "Argument of Periapsis(deg)": 0.006174644643276778,
        "Eccentricity": 0.0,
        "Inclination(deg)": 45.0,
        "Latitude(deg)": 28.83368815530551,
        "Longitude(deg)": -163.6053180976347,
        "Mean Anomaly(deg)": 137.16131744573966,
        "RAAN(deg)": 149.99417131594635,
        "Satellite Name": "Constellation 1 668",
        "Satellite Number": 668,
        "Semi-Major Axis(m)": 7083131.272910544,
        "Time(s)": 103
    },
    {
        "Altitude(m)": 704077.0329227344,
        "Argument of Periapsis(deg)": 0.006234592649522184,
        "Eccentricity": 0.0,
        "Inclination(deg)": 45.0,
        "Latitude(deg)": 28.79758335541335,
        "Longitude(deg)": -163.55366731365382,
        "Mean Anomaly(deg)": 137.2220185859895,
        "RAAN(deg)": 149.9941147267808,
        "Satellite Name": "Constellation 1 668",
        "Satellite Number": 668,
        "Semi-Major Axis(m)": 7083131.272910544,
        "Time(s)": 104
    },
    {
        "Altitude(m)": 704071.471595093,
        "Argument of Periapsis(deg)": 0.00629454065576759,
        "Eccentricity": 0.0,
        "Inclination(deg)": 45.0,
        "Latitude(deg)": 28.761455362081822,
        "Longitude(deg)": -163.5020547711369,
        "Mean Anomaly(deg)": 137.2827197262394,
        "RAAN(deg)": 149.99405813761524,
        "Satellite Name": "Constellation 1 668",
        "Satellite Number": 668,
        "Semi-Major Axis(m)": 7083131.272910544,
        "Time(s)": 105
    },
    {
        "Altitude(m)": 704065.9159394751,
        "Argument of Periapsis(deg)": 0.006354488662012995,
        "Eccentricity": 0.0,
        "Inclination(deg)": 45.0,
        "Latitude(deg)": 28.725304225248994,
        "Longitude(deg)": -163.45048057893095,
        "Mean Anomaly(deg)": 137.34342086648925,
        "RAAN(deg)": 149.99400154844963,
        "Satellite Name": "Constellation 1 668",
        "Satellite Number": 668,
        "Semi-Major Axis(m)": 7083131.272910544,
        "Time(s)": 106
    },
    {
        "Altitude(m)": 704060.3659949161,
        "Argument of Periapsis(deg)": 0.006414436668258401,
        "Eccentricity": 0.0,
        "Inclination(deg)": 45.0,
        "Latitude(deg)": 28.68912999478102,
        "Longitude(deg)": -163.39894467774835,
        "Mean Anomaly(deg)": 137.40412200673921,
        "RAAN(deg)": 149.99394495928408,
        "Satellite Name": "Constellation 1 668",
        "Satellite Number": 668,
        "Semi-Major Axis(m)": 7083131.272910544,
        "Time(s)": 107
    },
    {
        "Altitude(m)": 704054.8218004464,
        "Argument of Periapsis(deg)": 0.0064743846745038075,
        "Eccentricity": 0.0,
        "Inclination(deg)": 45.0,
        "Latitude(deg)": 28.652932720473217,
        "Longitude(deg)": -163.34744700826585,
        "Mean Anomaly(deg)": 137.46482314698906,
        "RAAN(deg)": 149.9938883701185,
        "Satellite Name": "Constellation 1 668",
        "Satellite Number": 668,
        "Semi-Major Axis(m)": 7083131.272910544,
        "Time(s)": 108
    },
    {
        "Altitude(m)": 704049.2833950764,
        "Argument of Periapsis(deg)": 0.0065343326807492125,
        "Eccentricity": 0.0,
        "Inclination(deg)": 45.0,
        "Latitude(deg)": 28.61671245204949,
        "Longitude(deg)": -163.29598751112417,
        "Mean Anomaly(deg)": 137.525524287239,
        "RAAN(deg)": 149.99383178095295,
        "Satellite Name": "Constellation 1 668",
        "Satellite Number": 668,
        "Semi-Major Axis(m)": 7083131.272910544,
        "Time(s)": 109
    },
    {
        "Altitude(m)": 704043.7508178101,
        "Argument of Periapsis(deg)": 0.0065942806869946176,
        "Eccentricity": 0.0,
        "Inclination(deg)": 45.0,
        "Latitude(deg)": 28.580469239162795,
        "Longitude(deg)": -163.24456612692887,
        "Mean Anomaly(deg)": 137.5862254274889,
        "RAAN(deg)": 149.99377519178736,
        "Satellite Name": "Constellation 1 668",
        "Satellite Number": 668,
        "Semi-Major Axis(m)": 7083131.272910544,
        "Time(s)": 110
    },
    {
        "Altitude(m)": 704038.224107636,
        "Argument of Periapsis(deg)": 0.006654228693240024,
        "Eccentricity": 0.0,
        "Inclination(deg)": 45.0,
        "Latitude(deg)": 28.54420313139524,
        "Longitude(deg)": -163.19318296434787,
        "Mean Anomaly(deg)": 137.6469265677388,
        "RAAN(deg)": 149.99371860262178,
        "Satellite Name": "Constellation 1 668",
        "Satellite Number": 668,
        "Semi-Major Axis(m)": 7083131.272910544,
        "Time(s)": 111
    },
    {
        "Altitude(m)": 704032.7033035326,
        "Argument of Periapsis(deg)": 0.006714176699485429,
        "Eccentricity": 0.0,
        "Inclination(deg)": 45.0,
        "Latitude(deg)": 28.507914178257188,
        "Longitude(deg)": -163.14183762772413,
        "Mean Anomaly(deg)": 137.7076277079887,
        "RAAN(deg)": 149.99366201345623,
        "Satellite Name": "Constellation 1 668",
        "Satellite Number": 668,
        "Semi-Major Axis(m)": 7083131.272910544,
        "Time(s)": 112
    },
    {
        "Altitude(m)": 704027.1884444593,
        "Argument of Periapsis(deg)": 0.006774124705730835,
        "Eccentricity": 0.0,
        "Inclination(deg)": 45.0,
        "Latitude(deg)": 28.471602429188938,
        "Longitude(deg)": -163.09053022565797,
        "Mean Anomaly(deg)": 137.76832884823858,
        "RAAN(deg)": 149.99360542429065,
        "Satellite Name": "Constellation 1 668",
        "Satellite Number": 668,
        "Semi-Major Axis(m)": 7083131.272910544,
        "Time(s)": 113
    }
]